{
  "type": "FeatureCollection",
  "features": [
    {
      "type": "Feature",
      "properties": {
        "norad_id": 34003,
        "name": "COSMOS 2251 DEB",
        "group": "cosmos-2251-debris",
        "lat": -61.97047697543503,
        "lon": -127.56093750204273,
        "alt_km": 917.9501348536869,
        "timestamp": "2025-12-24T18:55:56.465169+00:00",
        "meta_object_name": "COSMOS 2251 DEB",
        "meta_object_id": "1993-036GN",
        "meta_epoch": "2025-12-24T03:37:55.677504",
        "meta_mean_motion": 13.84211481,
        "meta_eccentricity": 0.02753317,
        "meta_inclination": 74.0776,
        "meta_ra_of_asc_node": 265.937,
        "meta_arg_of_pericenter": 15.3832,
        "meta_mean_anomaly": 345.5452,
        "meta_ephemeris_type": 0,
        "meta_classification_type": "U",
        "meta_norad_cat_id": 34003,
        "meta_element_set_no": 999,
        "meta_rev_at_epoch": 84583,
        "meta_bstar": 0.0018921748,
        "meta_mean_motion_dot": 2.809e-05,
        "meta_mean_motion_ddot": 0,
        "tle_line1": "1 34003U 93036GN  25358.15133886  .00002809  00000+0  18922-2 0  9991",
        "tle_line2": "2 34003  74.0776 265.9370 0275331  15.3832 345.5452 13.84211481845837"
      },
      "geometry": {
        "type": "Point",
        "coordinates": [
          -127.56093750204273,
          -61.97047697543503
        ]
      }
    },
    {
      "type": "Feature",
      "properties": {
        "norad_id": 34004,
        "name": "COSMOS 2251 DEB",
        "group": "cosmos-2251-debris",
        "lat": -44.32961123357794,
        "lon": 126.75439229772708,
        "alt_km": 728.4895844064577,
        "timestamp": "2025-12-24T18:55:56.465179+00:00",
        "meta_object_name": "COSMOS 2251 DEB",
        "meta_object_id": "1993-036GP",
        "meta_epoch": "2025-12-23T05:26:09.671712",
        "meta_mean_motion": 14.49098754,
        "meta_eccentricity": 0.00334544,
        "meta_inclination": 74.0361,
        "meta_ra_of_asc_node": 293.4447,
        "meta_arg_of_pericenter": 304.4211,
        "meta_mean_anomaly": 55.3787,
        "meta_ephemeris_type": 0,
        "meta_classification_type": "U",
        "meta_norad_cat_id": 34004,
        "meta_element_set_no": 999,
        "meta_rev_at_epoch": 88182,
        "meta_bstar": 0.0012360348,
        "meta_mean_motion_dot": 4.706e-05,
        "meta_mean_motion_ddot": 0,
        "tle_line1": "1 34004U 93036GP  25357.22650083  .00004706  00000+0  12360-2 0  9990",
        "tle_line2": "2 34004  74.0361 293.4447 0033454 304.4211  55.3787 14.49098754881824"
      },
      "geometry": {
        "type": "Point",
        "coordinates": [
          126.75439229772708,
          -44.32961123357794
        ]
      }
    },
    {
      "type": "Feature",
      "properties": {
        "norad_id": 34005,
        "name": "COSMOS 2251 DEB",
        "group": "cosmos-2251-debris",
        "lat": 55.262034838465794,
        "lon": -12.983148550721411,
        "alt_km": 766.8861272523509,
        "timestamp": "2025-12-24T18:55:56.465190+00:00",
        "meta_object_name": "COSMOS 2251 DEB",
        "meta_object_id": "1993-036GQ",
        "meta_epoch": "2025-12-24T00:45:27.509760",
        "meta_mean_motion": 14.40311949,
        "meta_eccentricity": 0.00211906,
        "meta_inclination": 74.0434,
        "meta_ra_of_asc_node": 192.7847,
        "meta_arg_of_pericenter": 309.1002,
        "meta_mean_anomaly": 207.0852,
        "meta_ephemeris_type": 0,
        "meta_classification_type": "U",
        "meta_norad_cat_id": 34005,
        "meta_element_set_no": 999,
        "meta_rev_at_epoch": 88541,
        "meta_bstar": 9.8175556e-05,
        "meta_mean_motion_dot": 2.85e-06,
        "meta_mean_motion_ddot": 0,
        "tle_line1": "1 34005U 93036GQ  25358.03156840  .00000285  00000+0  98176-4 0  9992",
        "tle_line2": "2 34005  74.0434 192.7847 0021190 309.1002 207.0852 14.40311949885418"
      },
      "geometry": {
        "type": "Point",
        "coordinates": [
          -12.983148550721411,
          55.262034838465794
        ]
      }
    },
    {
      "type": "Feature",
      "properties": {
        "norad_id": 34006,
        "name": "COSMOS 2251 DEB",
        "group": "cosmos-2251-debris",
        "lat": -58.984136138360974,
        "lon": -32.59478857010996,
        "alt_km": 595.3669991755914,
        "timestamp": "2025-12-24T18:55:56.465200+00:00",
        "meta_object_name": "COSMOS 2251 DEB",
        "meta_object_id": "1993-036GR",
        "meta_epoch": "2025-12-23T09:59:27.714336",
        "meta_mean_motion": 14.95449075,
        "meta_eccentricity": 0.00116268,
        "meta_inclination": 74.0535,
        "meta_ra_of_asc_node": 121.7746,
        "meta_arg_of_pericenter": 54.9449,
        "meta_mean_anomaly": 1.6406,
        "meta_ephemeris_type": 0,
        "meta_classification_type": "U",
        "meta_norad_cat_id": 34006,
        "meta_element_set_no": 999,
        "meta_rev_at_epoch": 88828,
        "meta_bstar": 0.0034401278,
        "meta_mean_motion_dot": 0.00038281,
        "meta_mean_motion_ddot": 0,
        "tle_line1": "1 34006U 93036GR  25357.41629299  .00038281  00000+0  34401-2 0  9993",
        "tle_line2": "2 34006  74.0535 121.7746 0011626  54.9449   1.6406 14.95449075888287"
      },
      "geometry": {
        "type": "Point",
        "coordinates": [
          -32.59478857010996,
          -58.984136138360974
        ]
      }
    },
    {
      "type": "Feature",
      "properties": {
        "norad_id": 34007,
        "name": "COSMOS 2251 DEB",
        "group": "cosmos-2251-debris",
        "lat": -50.91447034608679,
        "lon": -56.958198094652715,
        "alt_km": 710.6712670233883,
        "timestamp": "2025-12-24T18:55:56.465211+00:00",
        "meta_object_name": "COSMOS 2251 DEB",
        "meta_object_id": "1993-036GS",
        "meta_epoch": "2025-12-24T04:25:38.414496",
        "meta_mean_motion": 14.64863711,
        "meta_eccentricity": 0.00442568,
        "meta_inclination": 74.0195,
        "meta_ra_of_asc_node": 324.8636,
        "meta_arg_of_pericenter": 96.0703,
        "meta_mean_anomaly": 264.5511,
        "meta_ephemeris_type": 0,
        "meta_classification_type": "U",
        "meta_norad_cat_id": 34007,
        "meta_element_set_no": 999,
        "meta_rev_at_epoch": 89247,
        "meta_bstar": 0.00077481553,
        "meta_mean_motion_dot": 4.17e-05,
        "meta_mean_motion_ddot": 0,
        "tle_line1": "1 34007U 93036GS  25358.18447239  .00004170  00000+0  77482-3 0  9998",
        "tle_line2": "2 34007  74.0195 324.8636 0044256  96.0703 264.5511 14.64863711892475"
      },
      "geometry": {
        "type": "Point",
        "coordinates": [
          -56.958198094652715,
          -50.91447034608679
        ]
      }
    },
    {
      "type": "Feature",
      "properties": {
        "norad_id": 34008,
        "name": "COSMOS 2251 DEB",
        "group": "cosmos-2251-debris",
        "lat": 70.10932326475749,
        "lon": 0.7971141746063982,
        "alt_km": 786.7848424326176,
        "timestamp": "2025-12-24T18:55:56.465221+00:00",
        "meta_object_name": "COSMOS 2251 DEB",
        "meta_object_id": "1993-036GT",
        "meta_epoch": "2025-12-24T03:36:17.043264",
        "meta_mean_motion": 14.33153747,
        "meta_eccentricity": 0.00246343,
        "meta_inclination": 74.0349,
        "meta_ra_of_asc_node": 309.6644,
        "meta_arg_of_pericenter": 303.087,
        "meta_mean_anomaly": 81.0266,
        "meta_ephemeris_type": 0,
        "meta_classification_type": "U",
        "meta_norad_cat_id": 34008,
        "meta_element_set_no": 999,
        "meta_rev_at_epoch": 88128,
        "meta_bstar": 0.00011874811,
        "meta_mean_motion_dot": 3.01e-06,
        "meta_mean_motion_ddot": 0,
        "tle_line1": "1 34008U 93036GT  25358.15019726  .00000301  00000+0  11875-3 0  9998",
        "tle_line2": "2 34008  74.0349 309.6644 0024634 303.0870  81.0266 14.33153747881284"
      },
      "geometry": {
        "type": "Point",
        "coordinates": [
          0.7971141746063982,
          70.10932326475749
        ]
      }
    },
    {
      "type": "Feature",
      "properties": {
        "norad_id": 34009,
        "name": "COSMOS 2251 DEB",
        "group": "cosmos-2251-debris",
        "lat": 58.56540992537585,
        "lon": 106.99539725485894,
        "alt_km": 776.9985930157554,
        "timestamp": "2025-12-24T18:55:56.465231+00:00",
        "meta_object_name": "COSMOS 2251 DEB",
        "meta_object_id": "1993-036GU",
        "meta_epoch": "2025-12-24T07:13:17.112864",
        "meta_mean_motion": 14.33231281,
        "meta_eccentricity": 0.00269597,
        "meta_inclination": 74.0377,
        "meta_ra_of_asc_node": 315.8084,
        "meta_arg_of_pericenter": 22.1198,
        "meta_mean_anomaly": 98.303,
        "meta_ephemeris_type": 0,
        "meta_classification_type": "U",
        "meta_norad_cat_id": 34009,
        "meta_element_set_no": 999,
        "meta_rev_at_epoch": 88111,
        "meta_bstar": 0.00015103048,
        "meta_mean_motion_dot": 3.91e-06,
        "meta_mean_motion_ddot": 0,
        "tle_line1": "1 34009U 93036GU  25358.30089251  .00000391  00000+0  15103-3 0  9993",
        "tle_line2": "2 34009  74.0377 315.8084 0026959  22.1198  98.3030 14.33231281881119"
      },
      "geometry": {
        "type": "Point",
        "coordinates": [
          106.99539725485894,
          58.56540992537585
        ]
      }
    }
  ]
}